QIANFAN-35              
1 61568U 24185S   26032.92009727  .00000695  00000+0  27387-3 0  9994
2 61568  88.9751  70.8692 0008743 111.8780 248.3345 14.28067176 77483
QIANFAN-36              
1 61569U 24185T   26032.89355082  .00000035  00000+0  32821-4 0  9997
2 61569  88.9733  75.7154 0004245 243.2286 116.8433 13.55605528 74858
QIANFAN-37              
1 62238U 24232B   26032.94872302  .00000046  00000+0  53267-4 0  9998
2 62238  88.9999  36.1525 0001543  72.4680 287.6639 13.50983648106080
QIANFAN-38              
1 62239U 24232C   26032.97344057  .00000042  00000+0  46574-4 0  9992
2 62239  89.0006  36.0692 0016095  52.0752 308.1851 13.50996415106146
QIANFAN-39              
1 62240U 24232D   26032.95049343  .00000148  00000+0  56686-4 0  9994
2 62240  89.0005  31.4444 0013802 271.6899  88.2713 14.25418881108688
QIANFAN-40              
1 62241U 24232E   26032.93230106  .00000047  00000+0  54692-4 0  9995
2 62241  89.0034  35.6721 0015284  59.5954 300.6705 13.50995597106508
QIANFAN-41              
1 62242U 24232F   26032.94051450  .00000036  00000+0  37081-4 0  9991
2 62242  89.0004  36.0233 0015425  48.8163 311.4316 13.50983997106160
QIANFAN-42              
1 62243U 24232G   26032.98112889  .00000149  00000+0  58084-4 0  9991
2 62243  89.0003  31.4959 0012712 278.7079  81.2673 14.24513548108668
QIANFAN-43              
1 62244U 24232H   26032.93639880  .00000036  00000+0  36454-4 0  9994
2 62244  89.0009  36.0913 0017062  53.0889 307.1823 13.50982970 74770
QIANFAN-44              
1 62245U 24232J   26032.92401918  .00000050  00000+0  59060-4 0  9997
2 62245  89.0007  35.9024 0015222  50.9897 309.2607 13.50985262106249
QIANFAN-45              
1 62246U 24232K   26032.96521094  .00000047  00000+0  53687-4 0  9995
2 62246  89.0011  36.0465 0015882  50.3148 309.9401 13.50994677106172
QIANFAN-46              
1 62247U 24232L   26032.98989562  .00000044  00000+0  49628-4 0  9993
2 62247  89.0007  36.1110 0016038  55.2443 305.0216 13.50983351106136
QIANFAN-47              
1 62248U 24232M   26032.91995939  .00000068  00000+0  85823-4 0  9995
2 62248  89.0003  36.0490 0016445  54.5508 305.7176 13.50995775106156
QIANFAN-48              
1 62249U 24232N   26032.95694757  .00000041  00000+0  44632-4 0  9998
2 62249  89.0007  36.0491 0018757  56.2949 303.9987 13.50984406106168
QIANFAN-49              
1 62250U 24232P   26032.94460448  .00000033  00000+0  31765-4 0  9991
2 62250  89.0006  36.0625 0015720  52.1221 308.1349 13.50984704 74752
QIANFAN-50              
1 62251U 24232Q   26032.96933939  .00000043  00000+0  48313-4 0  9992
2 62251  89.0011  36.0709 0017422  52.8167 307.4572 13.50995480 74785
QIANFAN-51              
1 62252U 24232R   26032.95286103  .00000037  00000+0  38272-4 0  9992
2 62252  89.0005  36.0633 0014976  56.8813 303.3773 13.50984082 74771
