[{"OBJECT_NAME":"QIANFAN-35","OBJECT_ID":"2024-185S","EPOCH":"2026-02-01T22:04:56.404128","MEAN_MOTION":14.28067176,"ECCENTRICITY":0.00087432,"INCLINATION":88.9751,"RA_OF_ASC_NODE":70.8692,"ARG_OF_PERICENTER":111.878,"MEAN_ANOMALY":248.3345,"EPHEMERIS_TYPE":0,"CLASSIFICATION_TYPE":"U","NORAD_CAT_ID":61568,"ELEMENT_SET_NO":999,"REV_AT_EPOCH":7748,"BSTAR":0.00027387383,"MEAN_MOTION_DOT":6.95e-6,"MEAN_MOTION_DDOT":0},{"OBJECT_NAME":"QIANFAN-36","OBJECT_ID":"2024-185T","EPOCH":"2026-02-01T21:26:42.790848","MEAN_MOTION":13.55605528,"ECCENTRICITY":0.00042458,"INCLINATION":88.9733,"RA_OF_ASC_NODE":75.7154,"ARG_OF_PERICENTER":243.2286,"MEAN_ANOMALY":116.8433,"EPHEMERIS_TYPE":0,"CLASSIFICATION_TYPE":"U","NORAD_CAT_ID":61569,"ELEMENT_SET_NO":999,"REV_AT_EPOCH":7485,"BSTAR":3.2820836e-5,"MEAN_MOTION_DOT":3.5e-7,"MEAN_MOTION_DDOT":0},{"OBJECT_NAME":"QIANFAN-37","OBJECT_ID":"2024-232B","EPOCH":"2026-02-01T22:46:09.668928","MEAN_MOTION":13.50983648,"ECCENTRICITY":0.0001543,"INCLINATION":88.9999,"RA_OF_ASC_NODE":36.1525,"ARG_OF_PERICENTER":72.468,"MEAN_ANOMALY":287.6639,"EPHEMERIS_TYPE":0,"CLASSIFICATION_TYPE":"U","NORAD_CAT_ID":62238,"ELEMENT_SET_NO":999,"REV_AT_EPOCH":10608,"BSTAR":5.3267272e-5,"MEAN_MOTION_DOT":4.6e-7,"MEAN_MOTION_DDOT":0},{"OBJECT_NAME":"QIANFAN-38","OBJECT_ID":"2024-232C","EPOCH":"2026-02-01T23:21:45.265248","MEAN_MOTION":13.50996415,"ECCENTRICITY":0.00160954,"INCLINATION":89.0006,"RA_OF_ASC_NODE":36.0692,"ARG_OF_PERICENTER":52.0752,"MEAN_ANOMALY":308.1851,"EPHEMERIS_TYPE":0,"CLASSIFICATION_TYPE":"U","NORAD_CAT_ID":62239,"ELEMENT_SET_NO":999,"REV_AT_EPOCH":10614,"BSTAR":4.6574405e-5,"MEAN_MOTION_DOT":4.2e-7,"MEAN_MOTION_DDOT":0},{"OBJECT_NAME":"QIANFAN-39","OBJECT_ID":"2024-232D","EPOCH":"2026-02-01T22:48:42.632352","MEAN_MOTION":14.25418881,"ECCENTRICITY":0.00138024,"INCLINATION":89.0005,"RA_OF_ASC_NODE":31.4444,"ARG_OF_PERICENTER":271.6899,"MEAN_ANOMALY":88.2713,"EPHEMERIS_TYPE":0,"CLASSIFICATION_TYPE":"U","NORAD_CAT_ID":62240,"ELEMENT_SET_NO":999,"REV_AT_EPOCH":10868,"BSTAR":5.6686116e-5,"MEAN_MOTION_DOT":1.48e-6,"MEAN_MOTION_DDOT":0},{"OBJECT_NAME":"QIANFAN-40","OBJECT_ID":"2024-232E","EPOCH":"2026-02-01T22:22:30.811584","MEAN_MOTION":13.50995597,"ECCENTRICITY":0.00152847,"INCLINATION":89.0034,"RA_OF_ASC_NODE":35.6721,"ARG_OF_PERICENTER":59.5954,"MEAN_ANOMALY":300.6705,"EPHEMERIS_TYPE":0,"CLASSIFICATION_TYPE":"U","NORAD_CAT_ID":62241,"ELEMENT_SET_NO":999,"REV_AT_EPOCH":10650,"BSTAR":5.4692068e-5,"MEAN_MOTION_DOT":4.7e-7,"MEAN_MOTION_DDOT":0},{"OBJECT_NAME":"QIANFAN-41","OBJECT_ID":"2024-232F","EPOCH":"2026-02-01T22:34:20.452800","MEAN_MOTION":13.50983997,"ECCENTRICITY":0.00154259,"INCLINATION":89.0004,"RA_OF_ASC_NODE":36.0233,"ARG_OF_PERICENTER":48.8163,"MEAN_ANOMALY":311.4316,"EPHEMERIS_TYPE":0,"CLASSIFICATION_TYPE":"U","NORAD_CAT_ID":62242,"ELEMENT_SET_NO":999,"REV_AT_EPOCH":10616,"BSTAR":3.7080979e-5,"MEAN_MOTION_DOT":3.6e-7,"MEAN_MOTION_DDOT":0},{"OBJECT_NAME":"QIANFAN-42","OBJECT_ID":"2024-232G","EPOCH":"2026-02-01T23:32:49.536096","MEAN_MOTION":14.24513548,"ECCENTRICITY":0.00127126,"INCLINATION":89.0003,"RA_OF_ASC_NODE":31.4959,"ARG_OF_PERICENTER":278.7079,"MEAN_ANOMALY":81.2673,"EPHEMERIS_TYPE":0,"CLASSIFICATION_TYPE":"U","NORAD_CAT_ID":62243,"ELEMENT_SET_NO":999,"REV_AT_EPOCH":10866,"BSTAR":5.8084468e-5,"MEAN_MOTION_DOT":1.49e-6,"MEAN_MOTION_DDOT":0},{"OBJECT_NAME":"QIANFAN-43","OBJECT_ID":"2024-232H","EPOCH":"2026-02-01T22:28:24.856320","MEAN_MOTION":13.5098297,"ECCENTRICITY":0.00170627,"INCLINATION":89.0009,"RA_OF_ASC_NODE":36.0913,"ARG_OF_PERICENTER":53.0889,"MEAN_ANOMALY":307.1823,"EPHEMERIS_TYPE":0,"CLASSIFICATION_TYPE":"U","NORAD_CAT_ID":62244,"ELEMENT_SET_NO":999,"REV_AT_EPOCH":7477,"BSTAR":3.6453506e-5,"MEAN_MOTION_DOT":3.6e-7,"MEAN_MOTION_DDOT":0},{"OBJECT_NAME":"QIANFAN-44","OBJECT_ID":"2024-232J","EPOCH":"2026-02-01T22:10:35.257152","MEAN_MOTION":13.50985262,"ECCENTRICITY":0.00152227,"INCLINATION":89.0007,"RA_OF_ASC_NODE":35.9024,"ARG_OF_PERICENTER":50.9897,"MEAN_ANOMALY":309.2607,"EPHEMERIS_TYPE":0,"CLASSIFICATION_TYPE":"U","NORAD_CAT_ID":62245,"ELEMENT_SET_NO":999,"REV_AT_EPOCH":10624,"BSTAR":5.9060133e-5,"MEAN_MOTION_DOT":5.0e-7,"MEAN_MOTION_DDOT":0},{"OBJECT_NAME":"QIANFAN-45","OBJECT_ID":"2024-232K","EPOCH":"2026-02-01T23:09:54.225216","MEAN_MOTION":13.50994677,"ECCENTRICITY":0.00158828,"INCLINATION":89.0011,"RA_OF_ASC_NODE":36.0465,"ARG_OF_PERICENTER":50.3148,"MEAN_ANOMALY":309.9401,"EPHEMERIS_TYPE":0,"CLASSIFICATION_TYPE":"U","NORAD_CAT_ID":62246,"ELEMENT_SET_NO":999,"REV_AT_EPOCH":10617,"BSTAR":5.3687079e-5,"MEAN_MOTION_DOT":4.7e-7,"MEAN_MOTION_DDOT":0},{"OBJECT_NAME":"QIANFAN-46","OBJECT_ID":"2024-232L","EPOCH":"2026-02-01T23:45:26.981568","MEAN_MOTION":13.50983351,"ECCENTRICITY":0.00160385,"INCLINATION":89.0007,"RA_OF_ASC_NODE":36.111,"ARG_OF_PERICENTER":55.2443,"MEAN_ANOMALY":305.0216,"EPHEMERIS_TYPE":0,"CLASSIFICATION_TYPE":"U","NORAD_CAT_ID":62247,"ELEMENT_SET_NO":999,"REV_AT_EPOCH":10613,"BSTAR":4.962778e-5,"MEAN_MOTION_DOT":4.4e-7,"MEAN_MOTION_DDOT":0},{"OBJECT_NAME":"QIANFAN-47","OBJECT_ID":"2024-232M","EPOCH":"2026-02-01T22:04:44.491296","MEAN_MOTION":13.50995775,"ECCENTRICITY":0.00164451,"INCLINATION":89.0003,"RA_OF_ASC_NODE":36.049,"ARG_OF_PERICENTER":54.5508,"MEAN_ANOMALY":305.7176,"EPHEMERIS_TYPE":0,"CLASSIFICATION_TYPE":"U","NORAD_CAT_ID":62248,"ELEMENT_SET_NO":999,"REV_AT_EPOCH":10615,"BSTAR":8.5823302e-5,"MEAN_MOTION_DOT":6.8e-7,"MEAN_MOTION_DDOT":0},{"OBJECT_NAME":"QIANFAN-48","OBJECT_ID":"2024-232N","EPOCH":"2026-02-01T22:58:00.270048","MEAN_MOTION":13.50984406,"ECCENTRICITY":0.00187571,"INCLINATION":89.0007,"RA_OF_ASC_NODE":36.0491,"ARG_OF_PERICENTER":56.2949,"MEAN_ANOMALY":303.9987,"EPHEMERIS_TYPE":0,"CLASSIFICATION_TYPE":"U","NORAD_CAT_ID":62249,"ELEMENT_SET_NO":999,"REV_AT_EPOCH":10616,"BSTAR":4.4631788e-5,"MEAN_MOTION_DOT":4.1e-7,"MEAN_MOTION_DDOT":0},{"OBJECT_NAME":"QIANFAN-49","OBJECT_ID":"2024-232P","EPOCH":"2026-02-01T22:40:13.827072","MEAN_MOTION":13.50984704,"ECCENTRICITY":0.00157204,"INCLINATION":89.0006,"RA_OF_ASC_NODE":36.0625,"ARG_OF_PERICENTER":52.1221,"MEAN_ANOMALY":308.1349,"EPHEMERIS_TYPE":0,"CLASSIFICATION_TYPE":"U","NORAD_CAT_ID":62250,"ELEMENT_SET_NO":999,"REV_AT_EPOCH":7475,"BSTAR":3.1765442e-5,"MEAN_MOTION_DOT":3.3e-7,"MEAN_MOTION_DDOT":0},{"OBJECT_NAME":"QIANFAN-50","OBJECT_ID":"2024-232Q","EPOCH":"2026-02-01T23:15:50.923296","MEAN_MOTION":13.5099548,"ECCENTRICITY":0.00174227,"INCLINATION":89.0011,"RA_OF_ASC_NODE":36.0709,"ARG_OF_PERICENTER":52.8167,"MEAN_ANOMALY":307.4572,"EPHEMERIS_TYPE":0,"CLASSIFICATION_TYPE":"U","NORAD_CAT_ID":62251,"ELEMENT_SET_NO":999,"REV_AT_EPOCH":7478,"BSTAR":4.8312891e-5,"MEAN_MOTION_DOT":4.3e-7,"MEAN_MOTION_DDOT":0},{"OBJECT_NAME":"QIANFAN-51","OBJECT_ID":"2024-232R","EPOCH":"2026-02-01T22:52:07.192992","MEAN_MOTION":13.50984082,"ECCENTRICITY":0.00149762,"INCLINATION":89.0005,"RA_OF_ASC_NODE":36.0633,"ARG_OF_PERICENTER":56.8813,"MEAN_ANOMALY":303.3773,"EPHEMERIS_TYPE":0,"CLASSIFICATION_TYPE":"U","NORAD_CAT_ID":62252,"ELEMENT_SET_NO":999,"REV_AT_EPOCH":7477,"BSTAR":3.8271733e-5,"MEAN_MOTION_DOT":3.7e-7,"MEAN_MOTION_DDOT":0}]
